{
  "norad_id": 48666,
  "name": "STARLINK-2666",
  "history": [
    {
      "epoch": "2026-03-28T22:00:01.999584Z",
      "apogee_km": 476.39169762964866,
      "perigee_km": 475.1264684127236,
      "latitude_deg": -5.9093928632388595,
      "longitude_deg": -136.21193150027463,
      "height_km": 477.08930599041935,
      "semi_major_axis_km": 6853.896083021186,
      "eccentricity": 9.23e-05,
      "inclination_deg": 53.1568,
      "raan_deg": 24.55,
      "arg_perigee_deg": 26.5582,
      "mean_anomaly_deg": 326.2004,
      "mean_motion_rev_day": 15.30017819
    },
    {
      "epoch": "2026-03-29T04:00:01.999584Z",
      "apogee_km": 476.49278982630585,
      "perigee_km": 474.8519878586185,
      "latitude_deg": -48.71587626410911,
      "longitude_deg": 78.7420304480873,
      "height_km": 492.73554748451375,
      "semi_major_axis_km": 6853.809388842462,
      "eccentricity": 0.0001197,
      "inclination_deg": 53.1573,
      "raan_deg": 23.3903,
      "arg_perigee_deg": 43.899,
      "mean_anomaly_deg": 246.6539,
      "mean_motion_rev_day": 15.30046849
    },
    {
      "epoch": "2026-03-30T04:00:01.999584Z",
      "apogee_km": 476.3581436550039,
      "perigee_km": 474.26372996551527,
      "latitude_deg": 32.572375321445485,
      "longitude_deg": 159.5977871156161,
      "height_km": 476.6790246347646,
      "semi_major_axis_km": 6853.447936810259,
      "eccentricity": 0.0001528,
      "inclination_deg": 53.1597,
      "raan_deg": 18.7457,
      "arg_perigee_deg": 85.2007,
      "mean_anomaly_deg": 316.9391,
      "mean_motion_rev_day": 15.30167893
    }
  ]
}